ONEWEB-0435             
1 51632U 22012L   25124.53025532 -.00000212  00000+0 -64410-3 0  9997
2 51632  87.8789 117.7614 0001616  81.3724 278.7587 13.10370808155794
ONEWEB-0436             
1 51633U 22012M   25124.44782799  .00000059  00000+0  11915-3 0  9992
2 51633  87.9034  87.2348 0001754  83.8080 276.3251 13.17648417159853
ONEWEB-0438             
1 51634U 22012N   25124.51367709  .00000581  00000+0  16269-2 0  9997
2 51634  87.8792 117.7652 0002226  86.6840 273.4542 13.10372819155828
ONEWEB-0439             
1 51635U 22012P   25124.51698740  .00000429  00000+0  11920-2 0  9990
2 51635  87.8791 117.7519 0001970  86.6407 273.4945 13.10371872155807
ONEWEB-0442             
1 51636U 22012Q   25124.44022478  .00000000  00000+0 -33364-4 0  9996
2 51636  87.9044  87.2820 0002694  88.2580 271.8860 13.17649324159843
ONEWEB-0443             
1 51637U 22012R   25124.61149613  .00000057  00000+0  11435-3 0  9992
2 51637  87.9040  87.2614 0002229  76.2745 283.8635 13.17650833159913
ONEWEB-0444             
1 51638U 22012S   25124.50703216  .00000676  00000+0  19003-2 0  9991
2 51638  87.8789 117.7591 0001923  84.1481 275.9866 13.10373711157108
ONEWEB-0445             
1 51639U 22012T   25124.52860473 -.00000111  00000+0 -35510-3 0  9991
2 51639  87.8781 117.7121 0002137  92.6081 267.5291 13.10369834155825
